ONEWEB-0136             
1 47282U 20100AA  24157.48074065  .00000442  00000+0  11919-2 0  9991
2 47282  87.8934 138.3168 0002504  78.2338 281.9071 13.12574576167379
ONEWEB-0137             
1 47283U 20100AB  24156.67592441 -.00000338  00000+0 -97334-3 0  9997
2 47283  87.8926 138.5017 0001992  82.6612 277.4743 13.12502138167179
ONEWEB-0138             
1 47284U 20100AC  24156.95999277 -.00000060  00000+0 -20298-3 0  9994
2 47284  87.8926 138.4577 0002121  83.0961 277.0409 13.12545569167290
ONEWEB-0139             
1 47285U 20100AD  24157.23735580  .00000434  00000+0  11709-2 0  9991
2 47285  87.8933 138.3756 0002102  85.4653 274.6715 13.12377708167404
ONEWEB-0140             
1 47286U 20100AE  24157.48719450  .00000352  00000+0  94267-3 0  9997
2 47286  87.8928 138.3285 0002132  82.1630 277.9740 13.12558364167399
ONEWEB-0141             
1 47287U 20100AF  24157.45372924  .00015642  00000+0  44316-1 0  9992
2 47287  87.8929 138.3454 0001419  90.9031 269.2259 13.10962727167386
ONEWEB-0142             
1 47288U 20100AG  24157.50082691 -.00000199  00000+0 -58778-3 0  9990
2 47288  87.8927 138.3180 0001968  78.4149 281.7200 13.12528556167386
ONEWEB-0143             
1 47289U 20100AH  24157.22564653  .00000038  00000+0  70195-4 0  9991
2 47289  87.8930 138.3930 0002043  87.0388 273.0974 13.12473229167322
